AQUA                    
1 27424U 02022A   24053.64146156  .00001500  00000+0  33017-3 0  9994
2 27424  98.3178   2.7052 0002020  92.1150  81.3818 14.58899386159820
CZ-4B R/B               
1 27432U 02024C   24053.64396147  .00000081  00000+0  65652-4 0  9996
2 27432  98.9925  95.3194 0049870 339.1955 132.5009 14.14284784123779
MIDORI II (ADEOS-II)    
1 27597U 02056A   24053.58939823  .00000518  00000+0  22591-3 0  9999
2 27597  98.6794   0.8419 0001748  54.8052 305.3293 14.28210669103751
H-2A R/B                
1 27601U 02056E   24053.58675216  .00000437  00000+0  17122-3 0  9992
2 27601  98.2188  36.4725 0070480 225.6164 248.8486 14.32662899107239
CZ-4B R/B               
1 28059U 03049C   24053.61892156  .00000827  00000+0  20666-3 0  9991
2 28059  98.5959  12.8468 0049125 350.3151   9.7092 14.53573553 78158
CZ-2C R/B               
1 28222U 04012C   24053.56978678  .00011170  00000+0  47129-3 0  9998
2 28222  97.8089  61.7166 0038489  93.0140 267.5501 15.22787598 89484
SL-16 R/B               
1 28353U 04021B   24053.53286800  .00000214  00000+0  13651-3 0  9999
2 28353  71.0025 358.1137 0002977  97.6756 262.4705 14.14382781 17329
CZ-4B R/B               
1 28415U 04035C   24053.60124946  .00005267  00000+0  28710-3 0  9998
2 28415  97.4398  89.8910 0045803  65.0404 295.5576 15.13903184 66462
CZ-2C R/B               
1 28480U 04046B   24053.47990818  .00000204  00000+0  92186-4 0  9991
2 28480  98.1489   5.5516 0140390 201.0854 158.4505 14.26253342  2105
ARIANE 5 R/B            
1 28499U 04049H   24053.63313995  .00001793  00000+0  21834-3 0  9992
2 28499  98.1636 189.0912 0087780 246.4162 112.7814 14.82093710 35155
CZ-2D R/B               
1 28738U 05024B   24053.54987770  .00010429  00000+0  44578-3 0  9996
2 28738  97.3624  54.0664 0009229 178.3531 181.7738 15.22994782 25041
SUZAKU (ASTRO-EII)      
1 28773U 05025A   24053.59481125  .00023832  00000+0  60544-3 0  9997
2 28773  31.3867 199.5821 0002259 142.5967 217.4843 15.38435169 29133
ALOS (DAICHI)           
1 28931U 06002A   24053.56199301  .00001806  00000+0  34454-3 0  9996
2 28931  98.0230   9.2431 0002030 112.2876 247.8543 14.65166750964045
H-2A R/B                
1 28932U 06002B   24053.19263378  .00006962  00000+0  54185-3 0  9993
2 28932  98.2201 138.4974 0075298 225.2842 134.2233 14.99351983981941
RESURS-DK 1             
1 29228U 06021A   24053.58241478  .00003409  00000+0  23734-3 0  9992
2 29228  69.9375 358.0514 0006181 225.7569 134.3087 15.06440760974900
GENESIS 1               
1 29252U 06029A   24053.61983832  .00017240  00000+0  52979-3 0  9999
2 29252  64.5168 194.7400 0010096 332.9069  27.1534 15.33787140972835
CZ-4B R/B               
1 29507U 06046C   24053.61831836  .00003907  00000+0  26550-3 0  9998
2 29507  97.6599  90.3734 0040026 312.5942  47.1911 15.06309498947316
CZ-2C R/B               
1 31114U 07010B   24053.39527588  .00000168  00000+0  96955-4 0  9991
2 31114  98.3107 196.3522 0058507 306.2146  53.3631 14.19710976873807
COSMO-SKYMED 1          
1 31598U 07023A   24053.62547368  .00000182  00000+0  29465-4 0  9993
2 31598  97.8834 238.4667 0001328  85.0936 275.0429 14.82158486904007
GENESIS 2               
1 31789U 07028A   24053.60875195  .00014967  00000+0  47393-3 0  9995
2 31789  64.4898 239.8724 0035884 229.2538 130.5476 15.32329742919680
COSMOS 2428             
1 31792U 07029A   24053.50094861  .00000208  00000+0  13772-3 0  9999
2 31792  70.9493 329.4726 0012105 220.4422 139.5801 14.12698356858704
SL-16 R/B               
1 31793U 07029B   24053.42755502 -.00000215  00000+0 -87067-4 0  9996
2 31793  70.9759 300.8214 0002262 277.0037 255.7264 14.14594533859820
KORONAS-FOTON           
1 33504U 09003A   24053.20172701  .00005920  00000+0  24150-3 0  9991
2 33504  82.4409 319.9751 0014390 293.5566  66.4159 15.24140410831344
CZ-2C R/B               
1 37731U 11030B   24053.51687564  .00001804  00000+0  25630-3 0  9993
2 37731  97.7492  21.7576 0055170 255.0673 217.6289 14.77103632679770
H-2A R/B                
1 38341U 12025E   24053.62483440  .00002814  00000+0  30902-3 0  9995
2 38341  98.4319 317.9480 0050595 221.5468 138.1896 14.87662169637001
CUSAT 2 & FALCON 9 R/B  
1 39271U 13055G   24053.55706622  .00038614 -30658-6  54241-3 0  9993
2 39271  80.9413 217.5167 0356470 330.6335  27.5257 15.07353886547871
SHIJIAN-16 (SJ-16)      
1 39358U 13057A   24053.57613404  .00002533  00000+0  27673-3 0  9998
2 39358  74.9749 153.5025 0017002 117.4505 242.8412 14.88213204560348
CZ-2C R/B               
1 39364U 13059B   24053.61245396  .00068449  00000+0  72558-3 0  9993
2 39364  97.0635 101.9465 0019635 248.3920 111.5248 15.63653074575015
SL-4 R/B                
1 39679U 14021B   24053.46605571  .00008885  00000+0  35226-3 0  9999
2 39679  51.6124 315.9868 0141462 309.1681  49.6795 15.17386779542185
ALOS-2                  
1 39766U 14029A   24053.52566774  .00002796  00000+0  38107-3 0  9998
2 39766  97.9210 151.8358 0001558 101.5199 258.6188 14.79474503526541
SL-27 R/B               
1 40354U 14084B   24053.53578875  .00031073  00000+0  31380-3 0  9996
2 40354  74.7264 100.1892 0025221 323.7927  36.1589 15.64769149515997
YAOGAN-29               
1 41038U 15069A   24053.62710164  .00000760  00000+0  10383-3 0  9998
2 41038  98.0611  67.3418 0000679 224.9563 135.1595 14.81522325445358
ASTRO-H (HITOMI)        
1 41337U 16012A   24053.53143511  .00003513  00000+0  24964-3 0  9994
2 41337  31.0026 106.7906 0011124  66.4816 293.6988 15.02815841439603
HXMT (HUIYAN)           
1 42758U 17034A   24053.57879053  .00007459  00000+0  39500-3 0  9993
2 42758  43.0132 194.9655 0001891 229.5942 130.4740 15.15805917369304
CZ-2C R/B               
1 43521U 18054D   24053.51525483  .00014230  00000+0  53762-3 0  9995
2 43521  35.1503 126.4125 0062994 165.9232 194.3257 15.24292474313180
SAOCOM 1A               
1 43641U 18076A   24053.56637817  .00000839  00000+0  11193-3 0  9994
2 43641  97.8877 241.4491 0001435  90.8278 269.3099 14.82141527290844
H-2A R/B                
1 43682U 18084L   24053.46514486  .00007504  00000+0  42644-3 0  9994
2 43682  98.8622 122.2951 0047419  35.9466 324.4935 15.12310757291992
SAOCOM 1B               
1 46265U 20059A   24053.26018980  .00000775  00000+0  10407-3 0  9990
2 46265  97.8884 240.2359 0001620  86.6547 273.4851 14.82093098188189
CSS (TIANHE)            
1 48274U 21035A   24053.35842385  .00033159  00000+0  36836-3 0  9997
2 48274  41.4682  70.8577 0008655   1.8066 358.2803 15.62165235160968
COSMOS 2550             
1 48865U 21056A   24053.60784525  .00000376  00000+0  17247-4 0  9996
2 48865  67.1401 137.9446 0008319 269.1370  90.8831 15.33872328149044
2022-019U               
1 51842U 22019U   24053.58104165  .00061620  00000+0  95020-3 0  9991
2 51842  97.5139 153.1675 0036222 160.8082 199.4545 15.53188243111059
CZ-2C R/B               
1 52794U 22058K   24053.49685083  .00009386  00000+0  40403-3 0  9990
2 52794  50.1695  87.4496 0086696  23.4073 337.0793 15.19906879 95503
CZ-2C R/B               
1 53131U 22082D   24053.49476217  .00119746  00000+0  72734-3 0  9994
2 53131  97.3218  81.8094 0018620  34.9944 325.2541 15.76911339 90797
XRISM                   
1 57800U 23137A   24053.60711004  .00005182  00000+0  40348-3 0  9996
2 57800  31.0048  27.4542 0009936 146.2741 213.8528 14.99695884 25238
